start=new Date('2022-09-29T00:00:00.000Z').valueOf();
sats=[{"OBJECT_TYPE":"PAYLOAD","OBJECT_ID":"2022-017Q","DECAY_DATE":null,"SITE":"AFWTR","INCLINATION":"53.2161","ARG_OF_PERICENTER":"48.7262","MEAN_MOTION_DDOT":"0.0000000000000","ECCENTRICITY":"0.00017010","RA_OF_ASC_NODE":"238.2180","FILE":"3586039","MEAN_ANOMALY":"311.3877","MEAN_MOTION_DOT":"0.00002803","GP_ID":"213711264","PERIAPSIS":"538.530","RCS_SIZE":"LARGE","EPOCH":"2022-09-28T07:19:20.776512","NORAD_CAT_ID":"51782","REV_AT_EPOCH":"3221","CENTER_NAME":"EARTH","SEMIMAJOR_AXIS":"6917.842","MEAN_MOTION":"15.08852593","CLASSIFICATION_TYPE":"U","TLE_LINE1":"1 51782U 22017Q   22271.30510158  .00002803  00000-0  19408-3 0  9990","PERIOD":"95.437","TLE_LINE2":"2 51782  53.2161 238.2180 0001701  48.7262 311.3877 15.08852593 32219","LAUNCH_DATE":"2022-02-25","REF_FRAME":"TEME","TIME_SYSTEM":"UTC","BSTAR":"0.00019408000000","EPHEMERIS_TYPE":"0","APOAPSIS":"540.884","MEAN_ELEMENT_THEORY":"SGP4","OBJECT_NAME":"STARLINK-3616","ELEMENT_SET_NO":"999","COUNTRY_CODE":"US"},{"EPHEMERIS_TYPE":"0","APOAPSIS":"541.105","MEAN_ELEMENT_THEORY":"SGP4","OBJECT_NAME":"STARLINK-3628","ELEMENT_SET_NO":"999","COUNTRY_CODE":"US","REV_AT_EPOCH":"3253","CENTER_NAME":"EARTH","SEMIMAJOR_AXIS":"6917.904","CLASSIFICATION_TYPE":"U","MEAN_MOTION":"15.08832222","TLE_LINE1":"1 51783U 22017R   22271.88012051 -.00000281  00000-0  42039-6 0  9991","PERIOD":"95.438","TLE_LINE2":"2 51783  53.2182 225.6476 0001931  54.5668 305.5504 15.08832222 32535","LAUNCH_DATE":"2022-02-25","REF_FRAME":"TEME","BSTAR":"0.00000042039000","TIME_SYSTEM":"UTC","MEAN_MOTION_DDOT":"0.0000000000000","ECCENTRICITY":"0.00019310","RA_OF_ASC_NODE":"225.6476","FILE":"3586258","MEAN_ANOMALY":"305.5504","MEAN_MOTION_DOT":"-0.00000281","GP_ID":"213767634","RCS_SIZE":"LARGE","PERIAPSIS":"538.433","EPOCH":"2022-09-28T21:07:22.412064","NORAD_CAT_ID":"51783","OBJECT_TYPE":"PAYLOAD","OBJECT_ID":"2022-017R","DECAY_DATE":null,"SITE":"AFWTR","INCLINATION":"53.2182","ARG_OF_PERICENTER":"54.5668"},{"MEAN_MOTION_DDOT":"0.0000000000000","ECCENTRICITY":"0.00017510","FILE":"3586039","RA_OF_ASC_NODE":"238.5368","MEAN_MOTION_DOT":"0.00005860","MEAN_ANOMALY":"299.6018","RCS_SIZE":"LARGE","PERIAPSIS":"538.507","GP_ID":"213710774","NORAD_CAT_ID":"51784","EPOCH":"2022-09-28T05:38:42.172512","OBJECT_TYPE":"PAYLOAD","OBJECT_ID":"2022-017S","DECAY_DATE":null,"SITE":"AFWTR","ARG_OF_PERICENTER":"60.5148","INCLINATION":"53.2172","EPHEMERIS_TYPE":"0","APOAPSIS":"540.930","MEAN_ELEMENT_THEORY":"SGP4","ELEMENT_SET_NO":"999","OBJECT_NAME":"STARLINK-3632","COUNTRY_CODE":"US","REV_AT_EPOCH":"3229","MEAN_MOTION":"15.08848770","CLASSIFICATION_TYPE":"U","CENTER_NAME":"EARTH","SEMIMAJOR_AXIS":"6917.854","TLE_LINE2":"2 51784  53.2172 238.5368 0001751  60.5148 299.6018 15.08848770 32299","PERIOD":"95.437","TLE_LINE1":"1 51784U 22017S   22271.23521033  .00005860  00000-0  38585-3 0  9991","REF_FRAME":"TEME","LAUNCH_DATE":"2022-02-25","BSTAR":"0.00038585000000","TIME_SYSTEM":"UTC"},{"INCLINATION":"53.2168","ARG_OF_PERICENTER":"53.9074","SITE":"AFWTR","DECAY_DATE":null,"OBJECT_ID":"2022-017T","OBJECT_TYPE":"PAYLOAD","EPOCH":"2022-09-28T21:02:04.774560","NORAD_CAT_ID":"51785","GP_ID":"213766161","RCS_SIZE":"LARGE","PERIAPSIS":"538.590","MEAN_ANOMALY":"306.2063","MEAN_MOTION_DOT":"0.00004648","RA_OF_ASC_NODE":"225.6757","FILE":"3586258","ECCENTRICITY":"0.00015720","MEAN_MOTION_DDOT":"0.0000000000000","BSTAR":"0.00030974000000","TIME_SYSTEM":"UTC","LAUNCH_DATE":"2022-02-25","REF_FRAME":"TEME","TLE_LINE1":"1 51785U 22017T   22271.87644415  .00004648  00000-0  30974-3 0  9999","TLE_LINE2":"2 51785  53.2168 225.6757 0001572  53.9074 306.2063 15.08862084 32535","PERIOD":"95.436","SEMIMAJOR_AXIS":"6917.813","CENTER_NAME":"EARTH","CLASSIFICATION_TYPE":"U","MEAN_MOTION":"15.08862084","REV_AT_EPOCH":"3253","COUNTRY_CODE":"US","OBJECT_NAME":"STARLINK-3646","ELEMENT_SET_NO":"999","MEAN_ELEMENT_THEORY":"SGP4","APOAPSIS":"540.765","EPHEMERIS_TYPE":"0"},{"MEAN_ELEMENT_THEORY":"SGP4","EPHEMERIS_TYPE":"0","APOAPSIS":"541.205","COUNTRY_CODE":"US","OBJECT_NAME":"STARLINK-3638","ELEMENT_SET_NO":"999","SEMIMAJOR_AXIS":"6917.883","CENTER_NAME":"EARTH","MEAN_MOTION":"15.08839018","CLASSIFICATION_TYPE":"U","REV_AT_EPOCH":"3230","LAUNCH_DATE":"2022-02-25","REF_FRAME":"TEME","BSTAR":"0.00021253000000","TIME_SYSTEM":"UTC","TLE_LINE1":"1 51786U 22017U   22271.29407155  .00003096  00000-0  21253-3 0  9990","PERIOD":"95.438","TLE_LINE2":"2 51786  53.2177 238.2724 0002106  48.5362 311.5811 15.08839018 32300","FILE":"3586039","RA_OF_ASC_NODE":"238.2724","MEAN_ANOMALY":"311.5811","MEAN_MOTION_DOT":"0.00003096","ECCENTRICITY":"0.00021060","MEAN_MOTION_DDOT":"0.0000000000000","GP_ID":"213711764","PERIAPSIS":"538.291","RCS_SIZE":"LARGE","EPOCH":"2022-09-28T07:03:27.781920","NORAD_CAT_ID":"51786","OBJECT_TYPE":"PAYLOAD","SITE":"AFWTR","INCLINATION":"53.2177","ARG_OF_PERICENTER":"48.5362","OBJECT_ID":"2022-017U","DECAY_DATE":null},{"PERIOD":"95.437","TLE_LINE2":"2 51787  53.2166 236.4230 0002143  38.9328 321.1818 15.08843164 32364","TLE_LINE1":"1 51787U 22017V   22271.70623335  .00002498  00000-0  17496-3 0  9996","REF_FRAME":"TEME","LAUNCH_DATE":"2022-02-25","TIME_SYSTEM":"UTC","BSTAR":"0.00017496000000","REV_AT_EPOCH":"3236","CLASSIFICATION_TYPE":"U","MEAN_MOTION":"15.08843164","SEMIMAJOR_AXIS":"6917.871","CENTER_NAME":"EARTH","ELEMENT_SET_NO":"999","OBJECT_NAME":"STARLINK-3619","COUNTRY_CODE":"US","EPHEMERIS_TYPE":"0","APOAPSIS":"541.218","MEAN_ELEMENT_THEORY":"SGP4","OBJECT_ID":"2022-017V","DECAY_DATE":null,"SITE":"AFWTR","ARG_OF_PERICENTER":"38.9328","INCLINATION":"53.2166","OBJECT_TYPE":"PAYLOAD","RCS_SIZE":"LARGE","PERIAPSIS":"538.253","GP_ID":"213767134","NORAD_CAT_ID":"51787","EPOCH":"2022-09-28T16:56:58.561440","ECCENTRICITY":"0.00021430","MEAN_MOTION_DDOT":"0.0000000000000","FILE":"3586258","RA_OF_ASC_NODE":"236.4230","MEAN_MOTION_DOT":"0.00002498","MEAN_ANOMALY":"321.1818"},{"MEAN_MOTION_DDOT":"0.0000000000000","ECCENTRICITY":"0.00021280","FILE":"3586039","RA_OF_ASC_NODE":"238.6317","MEAN_MOTION_DOT":"0.00003274","MEAN_ANOMALY":"321.1990","PERIAPSIS":"538.267","RCS_SIZE":"LARGE","GP_ID":"213710275","NORAD_CAT_ID":"51788","EPOCH":"2022-09-28T05:12:10.522944","OBJECT_TYPE":"PAYLOAD","OBJECT_ID":"2022-017W","DECAY_DATE":null,"SITE":"AFWTR","ARG_OF_PERICENTER":"38.9155","INCLINATION":"53.2156","EPHEMERIS_TYPE":"0","APOAPSIS":"541.211","MEAN_ELEMENT_THEORY":"SGP4","ELEMENT_SET_NO":"999","OBJECT_NAME":"STARLINK-3641","COUNTRY_CODE":"US","REV_AT_EPOCH":"3393","MEAN_MOTION":"15.08842002","CLASSIFICATION_TYPE":"U","CENTER_NAME":"EARTH","SEMIMAJOR_AXIS":"6917.874","PERIOD":"95.437","TLE_LINE2":"2 51788  53.2156 238.6317 0002128  38.9155 321.1990 15.08842002 33930","TLE_LINE1":"1 51788U 22017W   22271.21678846  .00003274  00000-0  22373-3 0  9993","REF_FRAME":"TEME","LAUNCH_DATE":"2022-02-25","BSTAR":"0.00022373000000","TIME_SYSTEM":"UTC"},{"DECAY_DATE":null,"OBJECT_ID":"2022-017X","INCLINATION":"53.2177","ARG_OF_PERICENTER":"43.2102","SITE":"AFWTR","OBJECT_TYPE":"PAYLOAD","EPOCH":"2022-09-28T15:05:41.540928","NORAD_CAT_ID":"51789","GP_ID":"213766662","RCS_SIZE":"LARGE","PERIAPSIS":"537.975","ECCENTRICITY":"0.00025580","MEAN_MOTION_DDOT":"0.0000000000000","MEAN_ANOMALY":"316.9091","MEAN_MOTION_DOT":"0.00001729","RA_OF_ASC_NODE":"236.7760","FILE":"3586258","TLE_LINE1":"1 51789U 22017X   22271.62895302  .00001729  00000-0  12674-3 0  9993","TLE_LINE2":"2 51789  53.2177 236.7760 0002558  43.2102 316.9091 15.08840177 32353","PERIOD":"95.438","BSTAR":"0.00012674000000","TIME_SYSTEM":"UTC","LAUNCH_DATE":"2022-02-25","REF_FRAME":"TEME","REV_AT_EPOCH":"3235","SEMIMAJOR_AXIS":"6917.880","CENTER_NAME":"EARTH","MEAN_MOTION":"15.08840177","CLASSIFICATION_TYPE":"U","OBJECT_NAME":"STARLINK-3639","ELEMENT_SET_NO":"999","COUNTRY_CODE":"US","APOAPSIS":"541.514","EPHEMERIS_TYPE":"0","MEAN_ELEMENT_THEORY":"SGP4"},{"OBJECT_NAME":"STARLINK-3631","ELEMENT_SET_NO":"999","COUNTRY_CODE":"US","EPHEMERIS_TYPE":"0","APOAPSIS":"540.957","MEAN_ELEMENT_THEORY":"SGP4","TLE_LINE1":"1 51790U 22017Y   22271.34558736  .00003015  00000-0  20743-3 0  9997","TLE_LINE2":"2 51790  53.2169 238.0584 0001768  52.7973 307.3180 15.08843675 34001","PERIOD":"95.437","LAUNCH_DATE":"2022-02-25","REF_FRAME":"TEME","BSTAR":"0.00020743000000","TIME_SYSTEM":"UTC","REV_AT_EPOCH":"3400","CENTER_NAME":"EARTH","SEMIMAJOR_AXIS":"6917.869","CLASSIFICATION_TYPE":"U","MEAN_MOTION":"15.08843675","GP_ID":"213711265","RCS_SIZE":"MEDIUM","PERIAPSIS":"538.511","EPOCH":"2022-09-28T08:17:38.747904","NORAD_CAT_ID":"51790","MEAN_MOTION_DDOT":"0.0000000000000","ECCENTRICITY":"0.00017680","FILE":"3586039","RA_OF_ASC_NODE":"238.0584","MEAN_ANOMALY":"307.3180","MEAN_MOTION_DOT":"0.00003015","OBJECT_ID":"2022-017Y","DECAY_DATE":null,"SITE":"AFWTR","INCLINATION":"53.2169","ARG_OF_PERICENTER":"52.7973","OBJECT_TYPE":"PAYLOAD"},{"MEAN_ELEMENT_THEORY":"SGP4","EPHEMERIS_TYPE":"0","APOAPSIS":"540.953","COUNTRY_CODE":"US","ELEMENT_SET_NO":"999","OBJECT_NAME":"STARLINK-3602","CLASSIFICATION_TYPE":"U","MEAN_MOTION":"15.08839975","CENTER_NAME":"EARTH","SEMIMAJOR_AXIS":"6917.880","REV_AT_EPOCH":"3400","REF_FRAME":"TEME","LAUNCH_DATE":"2022-02-25","BSTAR":"0.00007800900000","TIME_SYSTEM":"UTC","TLE_LINE2":"2 51791  53.2168 236.5058 0001746  44.1478 315.9653 15.08839975 34009","PERIOD":"95.438","TLE_LINE1":"1 51791U 22017Z   22271.68783326  .00000954  00000-0  78009-4 0  9998","RA_OF_ASC_NODE":"236.5058","FILE":"3586258","MEAN_MOTION_DOT":"0.00000954","MEAN_ANOMALY":"315.9653","ECCENTRICITY":"0.00017460","MEAN_MOTION_DDOT":"0.0000000000000","PERIAPSIS":"538.538","RCS_SIZE":"LARGE","GP_ID":"213767635","NORAD_CAT_ID":"51791","EPOCH":"2022-09-28T16:30:28.793664","OBJECT_TYPE":"PAYLOAD","SITE":"AFWTR","ARG_OF_PERICENTER":"44.1478","INCLINATION":"53.2168","OBJECT_ID":"2022-017Z","DECAY_DATE":null}];
